1 25544U 98067A   23050.90915690  .00017249  00000+0  30668-3 0  9997
2 25544  51.6393 189.4183 0009660   8.0568  73.5234 15.50226084383608
1 25544U 98067A   23050.90915690  .00019097  00000+0  33852-3 0  9998
2 25544  51.6393 189.4175 0009582   7.6791  73.9158 15.50232555383604
1 25544U 98067A   23051.36495299 -.01256871  00000+0 -25100-1 0  9998
2 25544  51.6370 187.1475 0008028   6.6873  99.5559 15.48984843383678
1 25544U 98067A   23051.55722113  .00107056  00000+0  19138-2 0  9999
2 25544  51.6381 186.2131 0005172  11.8510  87.3829 15.49155322383704
1 25544U 98067A   23051.70349537  .00122187  00000+0  21760-2 0  9997
2 25544  51.6386 185.4887 0005033  12.1711 183.3818 15.49195194383729
1 25544U 98067A   23051.82592965  .00059966  00000+0  10809-2 0  9991
2 25544  51.6389 184.8838 0004870  14.3893 144.4317 15.49186847383743
1 25544U 98067A   23052.08627873  .00025296  00000+0  46280-3 0  9999
2 25544  51.6389 183.5966 0005009  12.2674 159.4740 15.49178732383784
1 25544U 98067A   23052.19760620  .00023295  00000+0  42686-3 0  9992
2 25544  51.6388 183.0457 0005313  12.3121  60.7128 15.49181900383807
1 25544U 98067A   23052.38451573  .00021406  00000+0  39294-3 0  9990
2 25544  51.6386 182.1199 0005240  12.7328  23.3861 15.49187897383833
1 25544U 98067A   23052.59112363  .00013830  00000+0  25703-3 0  9996
2 25544  51.6383 181.0981 0005163  12.6559  96.4790 15.49183904383866
1 25544U 98067A   23052.84831380  .00014842  00000+0  27512-3 0  9995
2 25544  51.6384 179.8241 0005178  13.9624  90.4922 15.49193269383905
1 25544U 98067A   23053.15075231  .00015180  00000+0  28109-3 0  9994
2 25544  51.6384 178.3269 0005159  15.2167 337.0877 15.49203346383946
1 25544U 98067A   23053.23195950  .00016894  00000+0  31175-3 0  9994
2 25544  51.6385 177.9244 0005298  15.4932  70.0230 15.49210555383960
1 25544U 98067A   23053.36606105  .00016605  00000+0  30653-3 0  9997
2 25544  51.6385 177.2603 0005320  15.9334  97.9818 15.49214405383989
1 25544U 98067A   23053.57315972  .00016275  00000+0  30055-3 0  9998
2 25544  51.6387 176.2356 0005268  16.5866 173.1166 15.49220419384013
1 25544U 98067A   23053.69333167  .00016305  00000+0  30104-3 0  9996
2 25544  51.6388 175.6411 0005259  17.1242 123.2448 15.49224525384037
1 25544U 98067A   23053.81514089  .00016472  00000+0  30399-3 0  9995
2 25544  51.6387 175.0380 0005222  17.7830  82.3928 15.49229129384059
1 25544U 98067A   23054.05209491  .00016424  00000+0  30306-3 0  9995
2 25544  51.6387 173.8649 0005245  18.6637 323.9337 15.49236956384080
1 25544U 98067A   23054.08647934  .00016425  00000+0  30306-3 0  9997
2 25544  51.6387 173.6946 0005244  18.7627 155.7322 15.49238117384094
1 25544U 98067A   23054.19898951  .00028694  00000+0  52216-3 0  9991
2 25544  51.6393 173.1409 0005751  19.2646  63.1475 15.49255948384115
1 25544U 98067A   23054.39969716  .00016427  00000+0  30296-3 0  9996
2 25544  51.6390 172.1471 0005518  18.5460 104.0061 15.49250053384148
1 25544U 98067A   23054.58928243  .00016742  00000+0  30854-3 0  9997
2 25544  51.6389 171.2069 0005307  19.9715  80.6577 15.49256544384178
1 25544U 98067A   23054.72618734  .00016796  00000+0  30944-3 0  9993
2 25544  51.6389 170.5293 0005299  20.5920 124.1064 15.49261473384199
1 25544U 98067A   23054.78226885  .00016810  00000+0  30967-3 0  9993
2 25544  51.6389 170.2517 0005291  20.7901  76.9011 15.49263456384209
1 25544U 98067A   23055.08365741  .00016813  00000+0  30962-3 0  9990
2 25544  51.6389 168.7596 0005291  21.9119 317.8443 15.49273832384241
1 25544U 98067A   23055.16561388  .00016938  00000+0  31182-3 0  9997
2 25544  51.6388 168.3534 0005337  21.8259  55.3377 15.49277264384268
1 25544U 98067A   23055.28849572  .00024278  00000+0  44273-3 0  9995
2 25544  51.6391 167.7482 0005816  21.6474  21.3351 15.49291943384283
1 25544U 98067A   23055.36715531  .00017001  00000+0  31285-3 0  9996
2 25544  51.6387 167.3561 0005418  22.9195  99.0673 15.49284681384295
1 25544U 98067A   23055.57290509  .00017000  00000+0  31277-3 0  9992
2 25544  51.6389 166.3375 0005390  23.7047 166.5963 15.49291762384327
1 25544U 98067A   23055.76102899  .00017033  00000+0  31328-3 0  9990
2 25544  51.6390 165.4065 0005379  24.5892 135.6596 15.49298512384351
