OBJECT_NAME,OBJECT_ID,EPOCH,MEAN_MOTION,ECCENTRICITY,INCLINATION,RA_OF_ASC_NODE,ARG_OF_PERICENTER,MEAN_ANOMALY,EPHEMERIS_TYPE,CLASSIFICATION_TYPE,NORAD_CAT_ID,ELEMENT_SET_NO,REV_AT_EPOCH,BSTAR,MEAN_MOTION_DOT,MEAN_MOTION_DDOT
ISS (ZARYA),1998-067A,2023-02-19T21:49:11.156160,15.50226084,.000966,51.6393,189.4183,8.0568,73.5234,0,U,25544,999,38360,.30668E-3,.17249E-3,0
ISS (ZARYA),1998-067A,2023-02-19T21:49:11.156160,15.50232555,.0009582,51.6393,189.4175,7.6791,73.9158,0,U,25544,999,38360,.33852E-3,.19097E-3,0
ISS (ZARYA),1998-067A,2023-02-20T08:45:31.938336,15.48984843,.0008028,51.6370,187.1475,6.6873,99.5559,0,U,25544,999,38367,-.251E-1,-.1256871E-1,0
ISS (ZARYA),1998-067A,2023-02-20T13:22:23.905632,15.49155322,.0005172,51.6381,186.2131,11.8510,87.3829,0,U,25544,999,38370,.19138E-2,.107056E-2,0
ISS (ZARYA),1998-067A,2023-02-20T16:53:01.999968,15.49195194,.0005033,51.6386,185.4887,12.1711,183.3818,0,U,25544,999,38372,.2176E-2,.122187E-2,0
ISS (ZARYA),1998-067A,2023-02-20T19:49:20.321760,15.49186847,.000487,51.6389,184.8838,14.3893,144.4317,0,U,25544,999,38374,.10809E-2,.59966E-3,0
ISS (ZARYA),1998-067A,2023-02-21T02:04:14.482272,15.49178732,.0005009,51.6389,183.5966,12.2674,159.4740,0,U,25544,999,38378,.4628E-3,.25296E-3,0
ISS (ZARYA),1998-067A,2023-02-21T04:44:33.175680,15.49181900,.0005313,51.6388,183.0457,12.3121,60.7128,0,U,25544,999,38380,.42686E-3,.23295E-3,0
ISS (ZARYA),1998-067A,2023-02-21T09:13:42.159072,15.49187897,.000524,51.6386,182.1199,12.7328,23.3861,0,U,25544,999,38383,.39294E-3,.21406E-3,0
ISS (ZARYA),1998-067A,2023-02-21T14:11:13.081632,15.49183904,.0005163,51.6383,181.0981,12.6559,96.4790,0,U,25544,999,38386,.25703E-3,.1383E-3,0
ISS (ZARYA),1998-067A,2023-02-21T20:21:34.312320,15.49193269,.0005178,51.6384,179.8241,13.9624,90.4922,0,U,25544,999,38390,.27512E-3,.14842E-3,0
ISS (ZARYA),1998-067A,2023-02-22T03:37:04.999584,15.49203346,.0005159,51.6384,178.3269,15.2167,337.0877,0,U,25544,999,38394,.28109E-3,.1518E-3,0
ISS (ZARYA),1998-067A,2023-02-22T05:34:01.300800,15.49210555,.0005298,51.6385,177.9244,15.4932,70.0230,0,U,25544,999,38396,.31175E-3,.16894E-3,0
ISS (ZARYA),1998-067A,2023-02-22T08:47:07.674720,15.49214405,.000532,51.6385,177.2603,15.9334,97.9818,0,U,25544,999,38398,.30653E-3,.16605E-3,0
ISS (ZARYA),1998-067A,2023-02-22T13:45:20.999808,15.49220419,.0005268,51.6387,176.2356,16.5866,173.1166,0,U,25544,999,38401,.30055E-3,.16275E-3,0
ISS (ZARYA),1998-067A,2023-02-22T16:38:23.856288,15.49224525,.0005259,51.6388,175.6411,17.1242,123.2448,0,U,25544,999,38403,.30104E-3,.16305E-3,0
ISS (ZARYA),1998-067A,2023-02-22T19:33:48.172896,15.49229129,.0005222,51.6387,175.0380,17.7830,82.3928,0,U,25544,999,38405,.30399E-3,.16472E-3,0
ISS (ZARYA),1998-067A,2023-02-23T01:15:01.000224,15.49236956,.0005245,51.6387,173.8649,18.6637,323.9337,0,U,25544,999,38408,.30306E-3,.16424E-3,0
ISS (ZARYA),1998-067A,2023-02-23T02:04:31.814976,15.49238117,.0005244,51.6387,173.6946,18.7627,155.7322,0,U,25544,999,38409,.30306E-3,.16425E-3,0
ISS (ZARYA),1998-067A,2023-02-23T04:46:32.693664,15.49255948,.0005751,51.6393,173.1409,19.2646,63.1475,0,U,25544,999,38411,.52216E-3,.28694E-3,0
ISS (ZARYA),1998-067A,2023-02-23T09:35:33.834624,15.49250053,.0005518,51.6390,172.1471,18.5460,104.0061,0,U,25544,999,38414,.30296E-3,.16427E-3,0
ISS (ZARYA),1998-067A,2023-02-23T14:08:34.001952,15.49256544,.0005307,51.6389,171.2069,19.9715,80.6577,0,U,25544,999,38417,.30854E-3,.16742E-3,0
ISS (ZARYA),1998-067A,2023-02-23T17:25:42.586176,15.49261473,.0005299,51.6389,170.5293,20.5920,124.1064,0,U,25544,999,38419,.30944E-3,.16796E-3,0
ISS (ZARYA),1998-067A,2023-02-23T18:46:28.028640,15.49263456,.0005291,51.6389,170.2517,20.7901,76.9011,0,U,25544,999,38420,.30967E-3,.1681E-3,0
ISS (ZARYA),1998-067A,2023-02-24T02:00:28.000224,15.49273832,.0005291,51.6389,168.7596,21.9119,317.8443,0,U,25544,999,38424,.30962E-3,.16813E-3,0
ISS (ZARYA),1998-067A,2023-02-24T03:58:29.039232,15.49277264,.0005337,51.6388,168.3534,21.8259,55.3377,0,U,25544,999,38426,.31182E-3,.16938E-3,0
ISS (ZARYA),1998-067A,2023-02-24T06:55:26.030208,15.49291943,.0005816,51.6391,167.7482,21.6474,21.3351,0,U,25544,999,38428,.44273E-3,.24278E-3,0
ISS (ZARYA),1998-067A,2023-02-24T08:48:42.218784,15.49284681,.0005418,51.6387,167.3561,22.9195,99.0673,0,U,25544,999,38429,.31285E-3,.17001E-3,0
ISS (ZARYA),1998-067A,2023-02-24T13:44:58.999776,15.49291762,.000539,51.6389,166.3375,23.7047,166.5963,0,U,25544,999,38432,.31277E-3,.17E-3,0
ISS (ZARYA),1998-067A,2023-02-24T18:15:52.904736,15.49298512,.0005379,51.6390,165.4065,24.5892,135.6596,0,U,25544,999,38435,.31328E-3,.17033E-3,0
